NORAD_CAT_ID,OBJECT_NAME,OBJECT_TYPE,EPOCH,MEAN_MOTION,ECCENTRICITY,INCLINATION,RA_OF_ASC_NODE,ARG_OF_PERICENTER,MEAN_ANOMALY,BSTAR,MEAN_MOTION_DOT,MEAN_MOTION_DDOT,TLE_LINE0,TLE_LINE1,TLE_LINE2,SEMIMAJOR_AXIS,PERIOD,APOGEE,PERIGEE,DECAYED
53918.0,STARLINK-5012,PAYLOAD,2023-02-02 03:50:16,15.08842392,0.000123,53.2181,353.6508,97.979,262.1342,3.9121e-05,3.35e-06,0.0,0 STARLINK-5012,1 53918U 22119AJ  23033.15991191  .00000335  00000-0  39121-4 0  9999,2 53918  53.2181 353.6508 0001230  97.9790 262.1342 15.08842392 20582,6917.873,95.437,540.589,538.887,0.0
53918.0,STARLINK-5012,PAYLOAD,2023-02-02 07:01:02,15.08844018,0.0001245,53.2182,353.0562,97.4824,262.6309,5.3672e-05,5.67e-06,0.0,0 STARLINK-5012,1 53918U 22119AJ  23033.29239073  .00000567  00000-0  53672-4 0  9992,2 53918  53.2182 353.0562 0001245  97.4824 262.6309 15.08844018 21021,6917.868,95.437,540.594,538.872,0.0
53918.0,STARLINK-5012,PAYLOAD,2023-02-03 03:41:02,15.08853185,0.0001109,53.2173,349.1913,89.6402,270.4717,8.1318e-05,1.007e-05,0.0,0 STARLINK-5012,1 53918U 22119AJ  23034.15350331  .00001007  00000-0  81318-4 0  9997,2 53918  53.2173 349.1913 0001109  89.6402 270.4717 15.08853185 20733,6917.84,95.437,540.472,538.938,0.0
53918.0,STARLINK-5012,PAYLOAD,2023-02-03 05:16:25,15.08854818,0.0001198,53.2172,348.8939,92.2722,267.8407,0.00015941,2.251e-05,0.0,0 STARLINK-5012,1 53918U 22119AJ  23034.21974414  .00002251  00000-0  15941-3 0  9998,2 53918  53.2172 348.8939 0001198  92.2722 267.8407 15.08854818 21167,6917.835,95.437,540.529,538.871,0.0
53918.0,STARLINK-5012,PAYLOAD,2023-02-04 05:07:13,15.08840903,0.0001134,53.2178,344.4342,84.4833,275.6288,7.2954e-05,8.73e-06,0.0,0 STARLINK-5012,1 53918U 22119AJ  23035.21335230  .00000873  00000-0  72954-4 0  9992,2 53918  53.2178 344.4342 0001134  84.4833 275.6288 15.08840903 20892,6917.878,95.437,540.527,538.958,0.0
53918.0,STARLINK-5012,PAYLOAD,2023-02-05 06:33:23,15.08848319,0.0001109,53.2183,339.6771,84.0764,276.0355,0.00012713,1.736e-05,0.0,0 STARLINK-5012,1 53918U 22119AJ  23036.27319038  .00001736  00000-0  12713-3 0  9992,2 53918  53.2183 339.6771 0001109  84.0764 276.0355 15.08848319 21059,6917.855,95.437,540.487,538.953,0.0
53918.0,STARLINK-5012,PAYLOAD,2023-02-05 19:16:29,15.088371,0.0001232,53.2171,337.2974,82.1841,277.9291,8.6917e-05,1.096e-05,0.0,0 STARLINK-5012,1 53918U 22119AJ  23036.80311860  .00001096  00000-0  86917-4 0  9993,2 53918  53.2171 337.2974 0001232  82.1841 277.9291 15.08837100 21131,6917.889,95.438,540.607,538.902,0.0
53918.0,STARLINK-5012,PAYLOAD,2023-02-05 20:51:52,15.08835235,0.0001191,53.2172,336.9996,81.5824,278.5303,5.4166e-05,5.74e-06,0.0,0 STARLINK-5012,1 53918U 22119AJ  23036.86935884  .00000574  00000-0  54166-4 0  9998,2 53918  53.2172 336.9996 0001191  81.5824 278.5303 15.08835235 21565,6917.895,95.438,540.584,538.936,0.0
53918.0,STARLINK-5012,PAYLOAD,2023-02-06 06:24:11,15.0884329,0.0001158,53.2181,335.2153,80.987,279.1253,0.00017479,2.495e-05,0.0,0 STARLINK-5012,1 53918U 22119AJ  23037.26679525  .00002495  00000-0  17479-3 0  9999,2 53918  53.2181 335.2153 0001158  80.9870 279.1253 15.08843290 21627,6917.87,95.437,540.536,538.934,0.0
53918.0,STARLINK-5012,PAYLOAD,2023-02-06 20:42:39,15.08847543,0.0001252,53.2174,332.5392,81.4791,278.6343,0.00011459,1.537e-05,0.0,0 STARLINK-5012,1 53918U 22119AJ  23037.86295465  .00001537  00000-0  11459-3 0  9990,2 53918  53.2174 332.5392 0001252  81.4791 278.6343 15.08847543 21716,6917.857,95.437,540.588,538.856,0.0
53918.0,STARLINK-5012,PAYLOAD,2023-02-07 03:04:11,15.08859469,0.0001348,53.2183,331.3499,82.2854,277.8291,0.00042692,6.517e-05,0.0,0 STARLINK-5012,1 53918U 22119AJ  23038.12790933  .00006517  00000-0  42692-3 0  9996,2 53918  53.2183 331.3499 0001348  82.2854 277.8291 15.08859469 21337,6917.821,95.436,540.618,538.753,0.0
53918.0,STARLINK-5012,PAYLOAD,2023-02-07 04:39:34,15.08864173,0.0001383,53.218,331.0527,84.0022,276.1128,0.00065375,0.00010139,0.0,0 STARLINK-5012,1 53918U 22119AJ  23038.19414855  .00010139  00000-0  65375-3 0  9997,2 53918  53.2180 331.0527 0001383  84.0022 276.1128 15.08864173 21765,6917.807,95.436,540.628,538.715,0.0
53918.0,STARLINK-5012,PAYLOAD,2023-02-07 18:58:03,15.08844125,0.0001618,53.2173,328.3767,87.2075,272.9103,0.00011443,1.534e-05,0.0,0 STARLINK-5012,1 53918U 22119AJ  23038.79031414  .00001534  00000-0  11443-3 0  9995,2 53918  53.2173 328.3767 0001618  87.2075 272.9103 15.08844125 21432,6917.868,95.437,540.852,538.613,0.0
53918.0,STARLINK-5012,PAYLOAD,2023-02-08 07:41:07,15.08864368,0.0001432,53.2171,325.9982,73.1313,286.9836,0.0008009,0.0001249,0.0,0 STARLINK-5012,1 53918U 22119AJ  23039.32022843  .00012490  00000-0  80090-3 0  9998,2 53918  53.2171 325.9982 0001432  73.1313 286.9836 15.08864368 21513,6917.806,95.436,540.662,538.68,0.0
53918.0,STARLINK-5012,PAYLOAD,2023-02-09 01:10:22,15.08840933,0.0001226,53.2178,322.7279,87.0879,273.0253,0.00077425,0.00012056,0.0,0 STARLINK-5012,1 53918U 22119AJ  23040.04887571  .00012056  00000-0  77425-3 0  9992,2 53918  53.2178 322.7279 0001226  87.0879 273.0253 15.08840933 21620,6917.878,95.437,540.591,538.894,0.0
53918.0,STARLINK-5012,PAYLOAD,2023-02-09 04:21:08,15.08864556,0.0001286,53.2176,322.1331,84.7758,275.338,0.0015357,0.00024254,0.0,0 STARLINK-5012,1 53918U 22119AJ  23040.18135234  .00024254  00000-0  15357-2 0  9997,2 53918  53.2176 322.1331 0001286  84.7758 275.3380 15.08864556 22069,6917.805,95.436,540.56,538.781,0.0
53918.0,STARLINK-5012,PAYLOAD,2023-02-10 01:01:10,15.08854876,7.83e-05,53.2169,318.2678,101.9917,258.1163,0.002302,0.00036553,0.0,0 STARLINK-5012,1 53918U 22119AJ  23041.04248085  .00036553  00000-0  23020-2 0  9993,2 53918  53.2169 318.2678 0000783 101.9917 258.1163 15.08854876 21770,6917.835,95.437,540.242,539.158,0.0
53918.0,STARLINK-5012,PAYLOAD,2023-02-11 00:51:56,15.08874001,0.0001314,53.2187,313.8034,108.7049,251.4086,0.001563,0.00024698,0.0,0 STARLINK-5012,1 53918U 22119AJ  23042.03607359  .00024698  00000-0  15630-2 0  9991,2 53918  53.2187 313.8034 0001314 108.7049 251.4086 15.08874001 21928,6917.776,95.435,540.55,538.732,0.0
53918.0,STARLINK-5012,PAYLOAD,2023-02-11 18:21:11,15.08848542,0.0001144,53.2171,310.5356,111.9135,248.1978,0.0014823,0.00023387,0.0,0 STARLINK-5012,1 53918U 22119AJ  23042.76471691  .00023387  00000-0  14823-2 0  9996,2 53918  53.2171 310.5356 0001144 111.9135 248.1978 15.08848542 22032,6917.854,95.437,540.511,538.928,0.0
53918.0,STARLINK-5012,PAYLOAD,2023-02-12 02:18:07,15.08845238,0.0001096,53.2184,309.0495,106.4786,253.6327,0.00067078,0.00010405,0.0,0 STARLINK-5012,1 53918U 22119AJ  23043.09591644  .00010405  00000-0  67078-3 0  9992,2 53918  53.2184 309.0495 0001096 106.4786 253.6327 15.08845238 22083,6917.864,95.437,540.488,538.971,0.0
53918.0,STARLINK-5012,PAYLOAD,2023-02-12 03:53:30,15.0884468,0.0001148,53.217,308.751,89.7598,270.3526,0.00034069,5.139e-05,0.0,0 STARLINK-5012,1 53918U 22119AJ  23043.16215640  .00005139  00000-0  34069-3 0  9991,2 53918  53.2170 308.7510 0001148  89.7598 270.3526 15.08844680 22519,6917.866,95.437,540.525,538.937,0.0
53918.0,STARLINK-5012,PAYLOAD,2023-02-12 19:47:22,15.08820098,0.0001285,53.2181,305.7813,97.6967,262.4171,-5.2893e-05,-1.129e-05,0.0,0 STARLINK-5012,1 53918U 22119AJ  23043.82456734 -.00001129  00000-0 -52893-4 0  9998,2 53918  53.2181 305.7813 0001285  97.6967 262.4171 15.08820098 22193,6917.941,95.439,540.695,538.917,0.0
53918.0,STARLINK-5012,PAYLOAD,2023-02-13 10:05:51,15.0882962,9.35e-05,53.2164,303.1014,79.2581,280.8516,0.00052455,8.068e-05,0.0,0 STARLINK-5012,1 53918U 22119AJ  23044.42073236  .00008068  00000-0  52455-3 0  9997,2 53918  53.2164 303.1014 0000935  79.2581 280.8516 15.08829620 22702,6917.912,95.438,540.424,539.13,0.0
53918.0,STARLINK-5012,PAYLOAD,2023-02-13 18:02:47,15.08833749,0.0001044,53.2168,301.6159,80.7558,279.3552,0.0003568,5.394e-05,0.0,0 STARLINK-5012,1 53918U 22119AJ  23044.75193399  .00005394  00000-0  35680-3 0  9996,2 53918  53.2168 301.6159 0001044  80.7558 279.3552 15.08833749 22331,6917.899,95.438,540.487,539.042,0.0
53918.0,STARLINK-5012,PAYLOAD,2023-02-14 01:59:42,15.08851334,0.0001104,53.2156,300.1288,75.3397,284.7718,0.00080751,0.00012591,0.0,0 STARLINK-5012,1 53918U 22119AJ  23045.08313013  .00012591  00000-0  80751-3 0  9996,2 53918  53.2156 300.1288 0001104  75.3397 284.7718 15.08851334 22382,6917.846,95.437,540.474,538.947,0.0
53918.0,STARLINK-5012,PAYLOAD,2023-02-14 09:56:38,15.08851571,0.000117,53.2168,298.6411,72.1821,287.9298,0.00058085,8.971e-05,0.0,0 STARLINK-5012,1 53918U 22119AJ  23045.41433035  .00008971  00000-0  58085-3 0  9992,2 53918  53.2168 298.6411 0001170  72.1821 287.9298 15.08851571 22857,6917.845,95.437,540.519,538.901,0.0
53918.0,STARLINK-5012,PAYLOAD,2023-02-15 00:15:06,15.08840584,0.0001541,53.2177,295.9644,77.915,282.2014,0.00012545,1.709e-05,0.0,0 STARLINK-5012,1 53918U 22119AJ  23046.01049268  .00001709  00000-0  12545-3 0  9993,2 53918  53.2177 295.9644 0001541  77.9150 282.2014 15.08840584 22525,6917.879,95.438,540.81,538.678,0.0
53918.0,STARLINK-5012,PAYLOAD,2023-02-15 09:47:25,15.08848266,0.0001339,53.2191,294.1831,74.2678,285.8462,0.00023971,3.53e-05,0.0,0 STARLINK-5012,1 53918U 22119AJ  23046.40793017  .00003530  00000-0  23971-3 0  9993,2 53918  53.2191 294.1831 0001339  74.2678 285.8462 15.08848266 23005,6917.855,95.437,540.646,538.794,0.0
53918.0,STARLINK-5012,PAYLOAD,2023-02-15 20:55:06,15.08855671,0.0001307,53.2171,292.1007,92.901,267.2132,0.00036207,5.482e-05,0.0,0 STARLINK-5012,1 53918U 22119AJ  23046.87160691  .00005482  00000-0  36207-3 0  9994,2 53918  53.2171 292.1007 0001307  92.9010 267.2132 15.08855671 23071,6917.832,95.437,540.602,538.793,0.0
53918.0,STARLINK-5012,PAYLOAD,2023-02-15 22:30:29,15.08858196,0.0001325,53.2178,291.803,111.5932,248.5201,0.00029714,4.447e-05,0.0,0 STARLINK-5012,1 53918U 22119AJ  23046.93784295  .00004447  00000-0  29714-3 0  9998,2 53918  53.2178 291.8030 0001325 111.5932 248.5201 15.08858196 22669,6917.825,95.436,540.606,538.773,0.0
